Business Name,URL,Telephone,Street,City,State,Zip
"DCAA SOLUTIONS","DCAASOLUTION.COM","17036912463","12016 GOLF RIDGE CT","FAIRFAX","VIRGINIA","22033"
"FOUNDATION SOFT","FOUNDATIONSOFT.COM","18002460800","17799 FOLTZ PKWY","CLEVELAND","OHIO","44149"
"CASELLE","CASELLE.COM","18002438275","498 E BAY BLVD","PROVO","UTAH","84606"
"DELTEK","DELTEK.COM","18004562009","","","",""
"PROCAS","PROCAS.COM","14107304011","10480 LITTLE PATUXENT PKWY","COLUMBIA","MARYLAND","21044"
"CCAS","CCAS.COM","15407863466","","SPOTSYLVANIA","VIRGINIA","22553"
"ACUITY BUSINESS SOLUTIONS","ACUITYBUSINESS.COM","18555228489","36300 STATE RTE 750","PURCELLVILLE","VIRGINIA","20190"
"SYMPAQ","SYMPAQ.COM","13016700858","15839 CRABBS BRANCH WAY","DERWOOD","MARYLAND","20855"
"OCTANT","OCTANT.COM","","21630 RIDGETOP CIR","STERLING","VIRGINIA","20166"
"AXIUM","AXIUM.COM","18008721540","15800 SW SUNDEW DR","PORTLAND","OREGON","97223"
"SSI CONSULTING","GOVERNMENTCONTRACTORACCOUNTINGSOFTWARE.COM","18008863369","1616 ANDERSON RD","MCLEAN","VIRGINIA","22102"
"CAPPRICCIO FUZION","CAPRICCIOFUZION.COM","","","","",""
"SYNERGY BUSINESS SOLUTIONS","SYNERGYBUSINESS.COM","18004818590","221 1ST AVE W","SEATTLE","WASHINGTON","98119"
"OLYMPIC SYSTEMS","PROJECTCOST.NET","16132324295","","BOULDER","COLORADO","80307"
"ARVISO INC","ARVISOINC.COM","","","","",""
"GCAS","GCAS.COM","18883004227","","","",""
"PROPRICER","PROPRICER.COM","18005079980","43398 BUS PARK DR","TEMECULA","CALIFORNIA","92590"
"PRIVIA","PRIVIA.COM","18665319370","12601 STOA CT","HERNDON","VIRGINIA","20170"
"NEOSYSTEMS","NEOSYSTEMSCORP.COM","18886766367","1861 TYSONS BLVD","MCLEAN","VIRGINIA","22102"
"CORASWORKS","CORASWORKS.NET","18665803115","12007 SUNRISE VALLEY DR","RESTON","VIRGINIA","20191"
"FEDMARKET","FEDMARKET.COM","18886614094","5425 WISCONSIN AVE","CHEVY CHASE","MARYLAND","20815"
"XRSOLUTIONS","XRSOLUTIONS.COM","16036279770","","AMHERST","NEW HAMPSHIRE","03031"
"RELIASCENT","RELIASCENT.COM","13039993802","1898 S FLATIRON CT","BOULDER","COLORADO","80301"
"BIDSYNC","BIDSYNC.COM","18009909339","629 QUALITY DR","AMERICAN FORK","UTAH","84003"
"JOBSCOPE","JOBSCOPE.COM","18004435794","355 WOODRUFF RD","GREENVILLE","SOUTH CAROLINA","29607"
"GLOBAL SHOP SOLUTIONS","GLOBALSHOPSOLUTIONS.COM","18003645958","975 EVERGREEN CIR","SPRING","TEXAS","77380"
"PERCEPTIVE SOFTWARE","PERCEPTIVESOFTWARE.COM","19134227525","804 DOUGLAS RD","CORAL GABLES","FLORIDA","33134"
"SELECTICA","SELECTICA.COM","18777129560","","","",""
"CONTRACT LOGIX","CONTRACTLOGIX.COM","18663714445","198 STATE RTE 3 ALT","CHELMSFORD","MASSACHUSETTS","01824"
"DIGISOFT SOLUTIONS","DIGISOFT-SOLUTIONS.COM","18663520176","890 ELKTON DR","COLORADO SPRINGS","COLORADO","80907"
"PLEX","PLEX.COM","12483918001","900 TOWER DR","TROY","MICHIGAN","48098"
"CORPPRO","DCAASOLUTION.COM","17036912463","12016 GOLF RIDGE CT","FAIRFAX","VIRGINIA","22033"
"FEDERAL PUBLICATION SEMINARS","FEDPUBSEMINARS.COM","17035377800","1919 N LYNN ST","ARLINGTON","VIRGINIA","22209"
"FEDERAL CONTRACTOR SERVICES NETWORK","FCSERVICESNETWORK.COM","13045924159","111 E GERMAN ST","SHEPHERDSTOWN","WEST VIRGINIA","25443"
"GOVCON","GOV-CON.COM","13038009115","12298 AIRPORT WAY","CENTENNIAL","COLORADO","80021"
"PATHWAYS CONSULTING LLC","PATHWAYSCONSULTING.BIZ","18432619293","705 OLD TROLLEY RD","SUMMERVILLE","SOUTH CAROLINA","29485"